TIANMU-1 07             
1 57399U 23101A   26065.57454230  .00008352  00000+0  29795-3 0  9991
2 57399  97.2728 118.5929 0004609 142.4105 217.7458 15.29118809145964
STARLINK-31876          
1 59938U 24106S   26067.11935757  .00005441  00000+0  20708-3 0  9999
2 59938  43.0018 341.3059 0000717 275.3180  84.7590 15.27583006100290
